{
  "type": "FeatureCollection",
  "features": [
    {
      "type": "Feature",
      "properties": {
        "norad_id": 31736,
        "name": "FENGYUN 1C DEB",
        "group": "fengyun-1c-debris",
        "lat": 80.2014907711973,
        "lon": -116.14316179044619,
        "alt_km": 839.8872892327681,
        "timestamp": "2025-12-26T03:50:12.377021+00:00",
        "meta_object_name": "FENGYUN 1C DEB",
        "meta_object_id": "1999-025CEK",
        "meta_epoch": "2025-12-23T17:39:26.129376",
        "meta_mean_motion": 14.14190163,
        "meta_eccentricity": 0.0011448,
        "meta_inclination": 98.6782,
        "meta_ra_of_asc_node": 359.3318,
        "meta_arg_of_pericenter": 207.2701,
        "meta_mean_anomaly": 152.7873,
        "meta_ephemeris_type": 0,
        "meta_classification_type": "U",
        "meta_norad_cat_id": 31736,
        "meta_element_set_no": 999,
        "meta_rev_at_epoch": 64220,
        "meta_bstar": 0.00013853651,
        "meta_mean_motion_dot": 2.21e-06,
        "meta_mean_motion_ddot": 0,
        "tle_line1": "1 31736U 99025CEK 25357.73571909  .00000221  00000+0  13854-3 0  9996",
        "tle_line2": "2 31736  98.6782 359.3318 0011448 207.2701 152.7873 14.14190163642208"
      },
      "geometry": {
        "type": "Point",
        "coordinates": [
          -116.14316179044619,
          80.2014907711973
        ]
      }
    },
    {
      "type": "Feature",
      "properties": {
        "norad_id": 31737,
        "name": "FENGYUN 1C DEB",
        "group": "fengyun-1c-debris",
        "lat": 49.83035568531127,
        "lon": -137.25714327851992,
        "alt_km": 755.4416064234765,
        "timestamp": "2025-12-26T03:50:12.377030+00:00",
        "meta_object_name": "FENGYUN 1C DEB",
        "meta_object_id": "1999-025CEL",
        "meta_epoch": "2025-12-25T01:13:30.364896",
        "meta_mean_motion": 14.68833647,
        "meta_eccentricity": 0.01477082,
        "meta_inclination": 97.9159,
        "meta_ra_of_asc_node": 32.1817,
        "meta_arg_of_pericenter": 336.4105,
        "meta_mean_anomaly": 52.6491,
        "meta_ephemeris_type": 0,
        "meta_classification_type": "U",
        "meta_norad_cat_id": 31737,
        "meta_element_set_no": 999,
        "meta_rev_at_epoch": 98380,
        "meta_bstar": 0.00062320102,
        "meta_mean_motion_dot": 4.244e-05,
        "meta_mean_motion_ddot": 0,
        "tle_line1": "1 31737U 99025CEL 25359.05104589  .00004244  00000+0  62320-3 0  9991",
        "tle_line2": "2 31737  97.9159  32.1817 0147708 336.4105  52.6491 14.68833647983809"
      },
      "geometry": {
        "type": "Point",
        "coordinates": [
          -137.25714327851992,
          49.83035568531127
        ]
      }
    },
    {
      "type": "Feature",
      "properties": {
        "norad_id": 31738,
        "name": "FENGYUN 1C DEB",
        "group": "fengyun-1c-debris",
        "lat": 79.1929181923829,
        "lon": 7.613115534958395,
        "alt_km": 726.8691299193106,
        "timestamp": "2025-12-26T03:50:12.377041+00:00",
        "meta_object_name": "FENGYUN 1C DEB",
        "meta_object_id": "1999-025CEM",
        "meta_epoch": "2025-12-23T21:42:29.765088",
        "meta_mean_motion": 13.85097966,
        "meta_eccentricity": 0.0306503,
        "meta_inclination": 99.3607,
        "meta_ra_of_asc_node": 65.1392,
        "meta_arg_of_pericenter": 70.4545,
        "meta_mean_anomaly": 292.9435,
        "meta_ephemeris_type": 0,
        "meta_classification_type": "U",
        "meta_norad_cat_id": 31738,
        "meta_element_set_no": 999,
        "meta_rev_at_epoch": 62412,
        "meta_bstar": 0.0013333,
        "meta_mean_motion_dot": 2.136e-05,
        "meta_mean_motion_ddot": 0,
        "tle_line1": "1 31738U 99025CEM 25357.90451117  .00002136  00000+0  13333-2 0  9993",
        "tle_line2": "2 31738  99.3607  65.1392 0306503  70.4545 292.9435 13.85097966624129"
      },
      "geometry": {
        "type": "Point",
        "coordinates": [
          7.613115534958395,
          79.1929181923829
        ]
      }
    },
    {
      "type": "Feature",
      "properties": {
        "norad_id": 31739,
        "name": "FENGYUN 1C DEB",
        "group": "fengyun-1c-debris",
        "lat": -28.45311196272004,
        "lon": -129.46403286150743,
        "alt_km": 924.3376618729044,
        "timestamp": "2025-12-26T03:50:12.377051+00:00",
        "meta_object_name": "FENGYUN 1C DEB",
        "meta_object_id": "1999-025CEN",
        "meta_epoch": "2025-12-22T21:01:48.237600",
        "meta_mean_motion": 14.19222249,
        "meta_eccentricity": 0.012814,
        "meta_inclination": 98.7461,
        "meta_ra_of_asc_node": 52.0797,
        "meta_arg_of_pericenter": 49.2852,
        "meta_mean_anomaly": 311.9371,
        "meta_ephemeris_type": 0,
        "meta_classification_type": "U",
        "meta_norad_cat_id": 31739,
        "meta_element_set_no": 999,
        "meta_rev_at_epoch": 95630,
        "meta_bstar": 9.2432e-05,
        "meta_mean_motion_dot": 1.67e-06,
        "meta_mean_motion_ddot": 0,
        "tle_line1": "1 31739U 99025CEN 25356.87625275  .00000167  00000+0  92432-4 0  9998",
        "tle_line2": "2 31739  98.7461  52.0797 0128140  49.2852 311.9371 14.19222249956300"
      },
      "geometry": {
        "type": "Point",
        "coordinates": [
          -129.46403286150743,
          -28.45311196272004
        ]
      }
    },
    {
      "type": "Feature",
      "properties": {
        "norad_id": 31740,
        "name": "FENGYUN 1C DEB",
        "group": "fengyun-1c-debris",
        "lat": -14.01133670813989,
        "lon": -8.965699199312755,
        "alt_km": 772.2544754314695,
        "timestamp": "2025-12-26T03:50:12.377061+00:00",
        "meta_object_name": "FENGYUN 1C DEB",
        "meta_object_id": "1999-025CEP",
        "meta_epoch": "2025-12-24T23:19:56.739072",
        "meta_mean_motion": 14.42257386,
        "meta_eccentricity": 0.00243017,
        "meta_inclination": 99.8206,
        "meta_ra_of_asc_node": 172.1465,
        "meta_arg_of_pericenter": 32.9385,
        "meta_mean_anomaly": 117.9061,
        "meta_ephemeris_type": 0,
        "meta_classification_type": "U",
        "meta_norad_cat_id": 31740,
        "meta_element_set_no": 999,
        "meta_rev_at_epoch": 65251,
        "meta_bstar": 0.0013330711,
        "meta_mean_motion_dot": 4.359e-05,
        "meta_mean_motion_ddot": 0,
        "tle_line1": "1 31740U 99025CEP 25358.97218448  .00004359  00000+0  13331-2 0  9999",
        "tle_line2": "2 31740  99.8206 172.1465 0024301  32.9385 117.9061 14.42257386652513"
      },
      "geometry": {
        "type": "Point",
        "coordinates": [
          -8.965699199312755,
          -14.01133670813989
        ]
      }
    },
    {
      "type": "Feature",
      "properties": {
        "norad_id": 31742,
        "name": "FENGYUN 1C DEB",
        "group": "fengyun-1c-debris",
        "lat": 0.7815540038453431,
        "lon": 40.644214817345905,
        "alt_km": 780.5791267406821,
        "timestamp": "2025-12-26T03:50:12.377071+00:00",
        "meta_object_name": "FENGYUN 1C DEB",
        "meta_object_id": "1999-025CER",
        "meta_epoch": "2025-12-25T01:58:59.652768",
        "meta_mean_motion": 14.39845332,
        "meta_eccentricity": 0.00759259,
        "meta_inclination": 98.9186,
        "meta_ra_of_asc_node": 219.4004,
        "meta_arg_of_pericenter": 292.9263,
        "meta_mean_anomaly": 66.3923,
        "meta_ephemeris_type": 0,
        "meta_classification_type": "U",
        "meta_norad_cat_id": 31742,
        "meta_element_set_no": 999,
        "meta_rev_at_epoch": 96827,
        "meta_bstar": 0.00070014555,
        "meta_mean_motion_dot": 2.225e-05,
        "meta_mean_motion_ddot": 0,
        "tle_line1": "1 31742U 99025CER 25359.08263487  .00002225  00000+0  70015-3 0  9990",
        "tle_line2": "2 31742  98.9186 219.4004 0075925 292.9263  66.3923 14.39845332968274"
      },
      "geometry": {
        "type": "Point",
        "coordinates": [
          40.644214817345905,
          0.7815540038453431
        ]
      }
    },
    {
      "type": "Feature",
      "properties": {
        "norad_id": 31743,
        "name": "FENGYUN 1C DEB",
        "group": "fengyun-1c-debris",
        "lat": -33.479570371372986,
        "lon": 102.66294857528352,
        "alt_km": 771.2230566923981,
        "timestamp": "2025-12-26T03:50:12.377081+00:00",
        "meta_object_name": "FENGYUN 1C DEB",
        "meta_object_id": "1999-025CES",
        "meta_epoch": "2025-12-23T06:46:15.160224",
        "meta_mean_motion": 14.31363551,
        "meta_eccentricity": 0.00374009,
        "meta_inclination": 99.1437,
        "meta_ra_of_asc_node": 285.7501,
        "meta_arg_of_pericenter": 187.23,
        "meta_mean_anomaly": 325.8587,
        "meta_ephemeris_type": 0,
        "meta_classification_type": "U",
        "meta_norad_cat_id": 31743,
        "meta_element_set_no": 999,
        "meta_rev_at_epoch": 95791,
        "meta_bstar": 0.0013325864,
        "meta_mean_motion_dot": 3.511e-05,
        "meta_mean_motion_ddot": 0,
        "tle_line1": "1 31743U 99025CES 25357.28211991  .00003511  00000+0  13326-2 0  9994",
        "tle_line2": "2 31743  99.1437 285.7501 0037400 187.2300 325.8587 14.31363551957917"
      },
      "geometry": {
        "type": "Point",
        "coordinates": [
          102.66294857528352,
          -33.479570371372986
        ]
      }
    }
  ]
}